ONEWEB-0597             
1 54663U 22166X   25333.90322262 -.00000013  00000+0 -63845-4 0  9998
2 54663  87.9209 283.7417 0001823  83.8634 276.2707 13.21823830145214
ONEWEB-0600             
1 54664U 22166Y   25334.11220356  .00000026  00000+0  31657-4 0  9992
2 54664  87.9205 283.6908 0001949  84.0546 276.0810 13.21823590145215
ONEWEB-0601             
1 54665U 22166Z   25334.10397674 -.00000019  00000+0 -77444-4 0  9998
2 54665  87.9205 283.7106 0001742  88.9975 271.1359 13.21823599145401
ONEWEB-0602             
1 54666U 22166AA  25333.91722535 -.00000040  00000+0 -12820-3 0  9995
2 54666  87.9207 283.7516 0002156  86.7874 273.3507 13.21825313145228
ONEWEB-0603             
1 54667U 22166AB  25334.15007389 -.00000016  00000+0 -70319-4 0  9997
2 54667  87.9214 283.6433 0001835  84.2527 275.8816 13.21827438145180
ONEWEB-0604             
1 54668U 22166AC  25334.13855816 -.00000013  00000+0 -63554-4 0  9992
2 54668  87.9206 283.6663 0001902  78.3998 281.7349 13.21827748145145
ONEWEB-0605             
1 54669U 22166AD  25334.13195594  .00000044  00000+0  73889-4 0  9997
2 54669  87.9204 283.6958 0001349  93.7008 266.4281 13.21823724145212
ONEWEB-0606             
1 54670U 22166AE  25334.15335515 -.00000102  00000+0 -27890-3 0  9997
2 54670  87.9205 283.7026 0001856  73.9688 286.1650 13.21824594145270
